UNKNOWN                 
1 87448U          26115.45841059  .00001036  00000+0  85595-3 0  9996
2 87448 100.4467 343.5038 0061439 217.4195 142.2674 13.91009624627829
UNKNOWN                 
1 87456U          26107.41554529  .00004760  00000+0  67640-3 0  9993
2 87456  65.7650 116.6470 0510996 300.8719  54.3047 14.15650208629275
UNKNOWN                 
1 87517U          26112.74404163  .00002371  00000+0  66682-3 0  9992
2 87517  65.8160 273.2910 0671902 244.0784 139.7924 13.62315670610752
UNKNOWN                 
1 87541U          26110.06569975  .00000131  00000+0  33742-3 0  9998
2 87541  99.6905 322.4840 0059501 312.4864 200.1716 13.35632335599167
UNKNOWN                 
1 87553U          26115.15471523  .00001012  00000+0  34592-3 0  9990
2 87553  65.6705  32.7942 0686355 168.1375 193.6820 13.54296179609315
UNKNOWN                 
1 87557U          26114.60994754  .00003972  00000+0  86238-2 0  9999
2 87557 101.7963 352.8895 0072495  74.7615 286.1501 13.28968718582672
UNKNOWN                 
1 87561U          26114.38081228 -.00000138  00000+0 -74554-3 0  9994
2 87561 101.9867 173.1386 0174241  50.6792  11.8863 12.32160150558778
UNKNOWN                 
1 87565U          26111.23415391  .00000919  00000+0  51490-3 0  9990
2 87565  99.9503 120.6007 0172025 179.7835 180.3434 14.06360298634635
UNKNOWN                 
1 87569U          26115.45980278 -.00000026  00000+0  11317-3 0  9997
2 87569 101.9970 302.9919 0055487 351.3394  36.7515 12.68546206575424
UNKNOWN                 
1 87590U          26087.06424388  .00000493  00000+0  30064-3 0  9998
2 87590  98.7733 126.7330 0025998 348.3830  41.2894 14.10476543169090
UNKNOWN                 
1 87616U          26101.89043007  .00000329  00000+0  12850-2 0  9990
2 87616  66.0337 272.2779 0629386  87.1964  55.1063 12.47058495551219
UNKNOWN                 
1 87624U          26115.31820907  .00003466  00000+0  52681-3 0  9995
2 87624  98.6946  66.5548 0094572 189.4155 170.5281 14.71768898599911
UNKNOWN                 
1 87650U          26111.84886323  .00007341  00000+0  13744-2 0  9994
2 87650 100.2650 323.7894 0028891 259.0068 100.7877 14.64965598 98796
UNKNOWN                 
1 87672U          26115.55449905  .00001787  00000+0  72135-3 0  9999
2 87672  70.8570  77.4078 0054423  68.1147 292.5756 14.28485315643568
UNKNOWN                 
1 87681U          26109.42319789  .00000552  00000+0  64288-3 0  9993
2 87681  66.7357 156.1713 0147222  74.5330 287.1943 13.71404627619342
UNKNOWN                 
1 87690U          26110.45793749  .00004746  00000+0  67493-3 0  9990
2 87690  65.7951  18.8692 0582859 341.6993  16.3859 14.02197868625417
UNKNOWN                 
1 87706U          26113.50590167  .00002504  00000+0  43704-3 0  9995
2 87706  98.6750 309.3057 0102326 218.2861 198.1882 14.65602735597810
UNKNOWN                 
1 87725U          26112.80535681  .00078453  00000+0  39138-2 0  9999
2 87725  82.8632 134.5184 0001970  38.3146 321.8228 15.17170383653655
UNKNOWN                 
1 87730U          26110.79872015  .00000067  00000+0  54374-4 0  9993
2 87730  82.9431 138.6356 0030033   7.2731 352.8854 13.74528206603063
UNKNOWN                 
1 87737U          26111.11060113 -.00000004  00000+0  40598-4 0  9990
2 87737  99.3569 344.9978 0132527 212.0266 147.2778 13.72363270621603
UNKNOWN                 
1 87764U          26115.10771839  .00006606  00000+0  10552-2 0  9995
2 87764  65.6700 154.6164 0361748   7.1558  22.8200 14.37113309638272
UNKNOWN                 
1 87771U          26115.51265209  .00000075  00000+0  29263-3 0  9991
2 87771 100.7390 319.5634 0120173  59.2965 301.9925 13.19554845552739
UNKNOWN                 
1 87782U          26113.51119960  .00001854  00000+0  61812-2 0  9994
2 87782 102.3880   7.8195 0058381 329.7807  29.9927 13.01234172585120
UNKNOWN                 
1 87843U          26111.07647911  .00000795  00000+0  18759-2 0  9998
2 87843  99.6585 219.3570 0235584  63.8572 298.6574 13.17077993581180
UNKNOWN                 
1 87845U          26107.10102328  .00001979  00000+0  36954-2 0  9999
2 87845  98.8692  45.1297 0577765 325.2602  31.2012 12.89552632581366
UNKNOWN                 
1 87878U          26107.63787675  .00001910  00000+0  59619-3 0  9996
2 87878  99.1666 241.1142 0034051 253.7431 106.0009 14.41760272629434
UNKNOWN                 
1 87884U          26112.01482992  .00000240  00000+0  15401-3 0  9991
2 87884  98.7342 216.2924 0154656  61.9872 299.6846 14.06081367636674
UNKNOWN                 
1 87934U          26099.55718440  .00000087  00000+0  77533-4 0  9994
2 87934  82.9384 212.6169 0031582  70.3596 302.1194 13.73129753620484
UNKNOWN                 
1 87991U          26115.54524710 -.00004067  00000+0 -84038-2 0  9990
2 87991  28.6267  57.6807 0885857 230.7407 121.1199 12.35500914539555
UNKNOWN                 
1 89003U          26114.75900933  .00000162  00000+0  64308-4 0  9993
2 89003  74.0433 130.4536 0015071 160.7105 199.4622 14.36295581650647
UNKNOWN                 
1 89005U          26115.35671142  .00001422  00000+0  32738-3 0  9990
2 89005  97.8437 299.5994 0188561 340.4001  19.0010 14.46506559553403
UNKNOWN                 
1 89029U          26115.46475159  .00004421  00000+0  39608-3 0  9993
2 89029  98.0406  23.2194 0020621 240.5271 119.3893 14.96188975671062
UNKNOWN                 
1 89101U          26091.65486117  .00000375  00000+0  12472-2 0  9997
2 89101 100.4750  29.9210 0146273 223.0426 135.9164 13.04042441569173
UNKNOWN                 
1 89132U          26110.42415567  .00000415  00000+0  58942-3 0  9997
2 89132  63.4129 260.6959 2923482 319.7156  21.9555  8.88068415336534
UNKNOWN                 
1 89146U          26115.28294685  .00004605  00000+0  82877-3 0  9996
2 89146  98.2556  49.1912 0091637 358.0674   2.0161 14.64381331648417
UNKNOWN                 
1 89172U          26094.02362862  .00016244  00000+0  25546-2 0  9997
2 89172  82.0604 116.2928 0278446 294.7340  62.5108 14.49691267618149
UNKNOWN                 
1 89177U          26106.93774613  .00000085  00000+0  74547-4 0  9990
2 89177  82.9241 176.3065 0033358 152.0733 208.2221 13.73748389 80010
UNKNOWN                 
1 89183U          26115.22145682  .00000484  00000+0  46138-3 0  9994
2 89183  99.2166  28.2570 0130027 160.8569 199.7536 13.81754564625407
UNKNOWN                 
1 89184U          26115.09422238  .00018535  00000+0  19873-2 0  9996
2 89184  98.3815 351.7793 0011039  62.4776 297.7559 14.88649108511962
UNKNOWN                 
1 89213U          26113.41376493  .00000350  00000+0  24737-3 0  9996
2 89213  98.7646 344.5729 0228186 124.7394 237.5486 13.91743456470982
UNKNOWN                 
1 89251U          26114.45799672  .00004448  00000+0  27258-2 0  9993
2 89251  62.4788 189.3693 2809464 113.1424 278.8306  9.28302721385486
UNKNOWN                 
1 89261U          26112.71426152  .00000503  00000+0  16104-3 0  9998
2 89261  98.1637 106.6259 0014061 118.1585 242.1029 14.43405455552706
UNKNOWN                 
1 89304U          26113.61411087  .00014006  00000+0  10482-1 0  9991
2 89304  84.1993  68.0159 2864231 173.9320 332.8020  9.13276692450383
UNKNOWN                 
1 89349U          26114.98769159  .00000268  00000+0  91384-3 0  9994
2 89349  90.2519  10.3701 0028433 279.3740  80.4166 12.96307221496013
UNKNOWN                 
1 89379U          26114.54485075  .00003159  00000+0  40068-2 0  9995
2 89379 100.4696 144.7846 0050514 155.3650 204.9917 13.63832052598870
UNKNOWN                 
1 89395U          26115.38269571 -.00000180  00000+0 -15517-2 0  9991
2 89395 102.3862  81.2651 0223110 258.2668 261.3224 12.01543906540793
UNKNOWN                 
1 89403U          26115.16246297 -.00000839  00000+0 -28532-2 0  9999
2 89403  90.2554   8.8675 0023855 234.0819 279.9620 12.98943016495146
UNKNOWN                 
1 89484U          26114.69436772  .00123282  00000+0  30093-1 0  9994
2 89484  83.8941 114.7105 2785835 206.2042 136.6827  9.51902400367774
UNKNOWN                 
1 89493U          26114.14957206  .00001682  00000+0  83234-3 0  9990
2 89493  99.0134 189.8245 0079924  25.6374 334.8730 14.17052130482697
UNKNOWN                 
1 89494U          26113.15103376  .00001609  00000+0  79777-3 0  9998
2 89494  99.0122 188.6761 0080693  29.2809 331.2852 14.16980917482400
